{"type": "FeatureCollection", "features": [{"type": "Feature", "properties": {"GID_2": "KHM.16.4_2", "GID_0": "KHM", "COUNTRY": "Cambodia", "GID_1": "KHM.16_1", "NAME_1": "PhnomPenh", "NL_NAME_1": "NA", "NAME_2": "Dangkao", "VARNAME_2": "NA", "NL_NAME_2": "NA", "TYPE_2": "Srok", "ENGTYPE_2": "District", "CC_2": "NA", "HASC_2": "NA"}, "geometry": {"type": "MultiPolygon", "coordinates": [[[[104.8268, 11.4376], [104.8237, 11.4428], [104.8204, 11.4436], [104.8151, 11.4388], [104.8193, 11.4368], [104.818, 11.4324], [104.816, 11.4308], [104.8097, 11.4302], [104.8015, 11.434], [104.7976, 11.4403], [104.7994, 11.4448], [104.7932, 11.4435], [104.7932, 11.4472], [104.7885, 11.4453], [104.7832, 11.4479], [104.7823, 11.4503], [104.7851, 11.4543], [104.7835, 11.4561], [104.781, 11.456], [104.7863, 11.4762], [104.8033, 11.4807], [104.8152, 11.4815], [104.8176, 11.49], [104.8201, 11.4911], [104.8177, 11.4954], [104.8185, 11.5008], [104.8384, 11.4996], [104.8378, 11.5037], [104.8401, 11.506], [104.8607, 11.5067], [104.877, 11.5146], [104.8781, 11.518], [104.8755, 11.5219], [104.8939, 11.5218], [104.8967, 11.523], [104.9133, 11.519], [104.9136, 11.4824], [104.9214, 11.4845], [104.9182, 11.4666], [104.9228, 11.4516], [104.9226, 11.4288], [104.9135, 11.4303], [104.9121, 11.4331], [104.9057, 11.4357], [104.8966, 11.4355], [104.8886, 11.4302], [104.8852, 11.4343], [104.8807, 11.4362], [104.8734, 11.4225], [104.8644, 11.4263], [104.8585, 11.4237], [104.8562, 11.4244], [104.8522, 11.4303], [104.8308, 11.4309], [104.8268, 11.4376]]]]}}]}