{"type": "FeatureCollection", "features": [{"type": "Feature", "properties": {"GID_3": "KHM.16.4.1_2", "GID_0": "KHM", "COUNTRY": "Cambodia", "GID_1": "KHM.16_1", "NAME_1": "PhnomPenh", "NL_NAME_1": "NA", "GID_2": "KHM.16.4_2", "NAME_2": "Dangkao", "NL_NAME_2": "NA", "NAME_3": "CheungAek", "VARNAME_3": "NA", "NL_NAME_3": "NA", "TYPE_3": "Khum", "ENGTYPE_3": "Commune", "CC_3": "NA", "HASC_3": "NA"}, "geometry": {"type": "MultiPolygon", "coordinates": [[[[104.9214, 11.4845], [104.9182, 11.4666], [104.9226, 11.4523], [104.9211, 11.4485], [104.9186, 11.4514], [104.9161, 11.4516], [104.915, 11.4494], [104.9166, 11.4474], [104.9151, 11.4474], [104.9077, 11.451], [104.907, 11.4544], [104.9046, 11.4559], [104.9056, 11.4607], [104.903, 11.461], [104.9015, 11.4567], [104.9008, 11.4605], [104.8959, 11.4614], [104.8974, 11.4704], [104.8941, 11.4756], [104.8949, 11.4794], [104.893, 11.4849], [104.8949, 11.4899], [104.8923, 11.502], [104.9135, 11.5022], [104.9136, 11.4824], [104.9214, 11.4845]]]]}}, {"type": "Feature", "properties": {"GID_3": "KHM.16.4.2_2", "GID_0": "KHM", "COUNTRY": "Cambodia", "GID_1": "KHM.16_1", "NAME_1": "PhnomPenh", "NL_NAME_1": "NA", "GID_2": "KHM.16.4_2", "NAME_2": "Dangkao", "NL_NAME_2": "NA", "NAME_3": "Dangkao", "VARNAME_3": "NA", "NL_NAME_3": "NA", "TYPE_3": "Khum", "ENGTYPE_3": "Commune", "CC_3": "NA", "HASC_3": "NA"}, "geometry": {"type": "MultiPolygon", "coordinates": [[[[104.9135, 11.5022], [104.8923, 11.502], [104.8949, 11.4899], [104.893, 11.4849], [104.8949, 11.4794], [104.8941, 11.4756], [104.8974, 11.4704], [104.8962, 11.4655], [104.8935, 11.4674], [104.8906, 11.4658], [104.8891, 11.4669], [104.8921, 11.4702], [104.8917, 11.4724], [104.8884, 11.4714], [104.8827, 11.4773], [104.8796, 11.4764], [104.8751, 11.4782], [104.8734, 11.4838], [104.8774, 11.4903], [104.8786, 11.5042], [104.8809, 11.5059], [104.8808, 11.5108], [104.8755, 11.5219], [104.8939, 11.5218], [104.8967, 11.523], [104.9133, 11.519], [104.9135, 11.5022]]]]}}, {"type": "Feature", "properties": {"GID_3": "KHM.16.4.3_2", "GID_0": "KHM", "COUNTRY": "Cambodia", "GID_1": "KHM.16_1", "NAME_1": "PhnomPenh", "NL_NAME_1": "NA", "GID_2": "KHM.16.4_2", "NAME_2": "Dangkao", "NL_NAME_2": "NA", "NAME_3": "KongNoy", "VARNAME_3": "NA", "NL_NAME_3": "NA", "TYPE_3": "Khum", "ENGTYPE_3": "Commune", "CC_3": "NA", "HASC_3": "NA"}, "geometry": {"type": "MultiPolygon", "coordinates": [[[[104.8308, 11.4309], [104.8268, 11.4391], [104.8322, 11.4427], [104.8382, 11.441], [104.8399, 11.4469], [104.8434, 11.4461], [104.8501, 11.4381], [104.8522, 11.4303], [104.8308, 11.4309]]]]}}, {"type": "Feature", "properties": {"GID_3": "KHM.16.4.4_2", "GID_0": "KHM", "COUNTRY": "Cambodia", "GID_1": "KHM.16_1", "NAME_1": "PhnomPenh", "NL_NAME_1": "NA", "GID_2": "KHM.16.4_2", "NAME_2": "Dangkao", "NL_NAME_2": "NA", "NAME_3": "KrangPongro", "VARNAME_3": "NA", "NL_NAME_3": "NA", "TYPE_3": "Khum", "ENGTYPE_3": "Commune", "CC_3": "NA", "HASC_3": "NA"}, "geometry": {"type": "MultiPolygon", "coordinates": [[[[104.8097, 11.4302], [104.8015, 11.434], [104.7976, 11.4403], [104.7994, 11.4448], [104.7932, 11.4435], [104.7937, 11.4463], [104.7915, 11.4472], [104.7997, 11.4605], [104.8099, 11.4599], [104.8071, 11.4552], [104.808, 11.4534], [104.819, 11.4537], [104.8224, 11.4478], [104.8221, 11.4441], [104.8151, 11.4388], [104.8193, 11.4368], [104.818, 11.4324], [104.816, 11.4308], [104.8097, 11.4302]]]]}}, {"type": "Feature", "properties": {"GID_3": "KHM.16.4.5_2", "GID_0": "KHM", "COUNTRY": "Cambodia", "GID_1": "KHM.16_1", "NAME_1": "PhnomPenh", "NL_NAME_1": "NA", "GID_2": "KHM.16.4_2", "NAME_2": "Dangkao", "NL_NAME_2": "NA", "NAME_3": "PongTuek", "VARNAME_3": "NA", "NL_NAME_3": "NA", "TYPE_3": "Khum", "ENGTYPE_3": "Commune", "CC_3": "NA", "HASC_3": "NA"}, "geometry": {"type": "MultiPolygon", "coordinates": [[[[104.8203, 11.4522], [104.819, 11.4537], [104.8122, 11.4526], [104.8071, 11.4545], [104.8127, 11.4664], [104.8171, 11.4888], [104.8201, 11.4911], [104.8177, 11.4954], [104.8185, 11.5008], [104.8359, 11.5003], [104.8364, 11.4929], [104.8331, 11.4876], [104.8323, 11.481], [104.8335, 11.4685], [104.8327, 11.453], [104.8203, 11.4522]]]]}}, {"type": "Feature", "properties": {"GID_3": "KHM.16.4.6_2", "GID_0": "KHM", "COUNTRY": "Cambodia", "GID_1": "KHM.16_1", "NAME_1": "PhnomPenh", "NL_NAME_1": "NA", "GID_2": "KHM.16.4_2", "NAME_2": "Dangkao", "NL_NAME_2": "NA", "NAME_3": "PrateahLang", "VARNAME_3": "NA", "NL_NAME_3": "NA", "TYPE_3": "Khum", "ENGTYPE_3": "Commune", "CC_3": "NA", "HASC_3": "NA"}, "geometry": {"type": "MultiPolygon", "coordinates": [[[[104.7915, 11.4472], [104.7885, 11.4453], [104.7836, 11.4476], [104.7823, 11.4503], [104.7851, 11.4543], [104.7835, 11.4561], [104.781, 11.456], [104.7863, 11.4762], [104.8033, 11.4807], [104.8152, 11.4815], [104.8127, 11.4664], [104.8099, 11.4599], [104.7997, 11.4605], [104.7915, 11.4472]]]]}}, {"type": "Feature", "properties": {"GID_3": "KHM.16.4.7_2", "GID_0": "KHM", "COUNTRY": "Cambodia", "GID_1": "KHM.16_1", "NAME_1": "PhnomPenh", "NL_NAME_1": "NA", "GID_2": "KHM.16.4_2", "NAME_2": "Dangkao", "NL_NAME_2": "NA", "NAME_3": "PreaekKampues", "VARNAME_3": "NA", "NL_NAME_3": "NA", "TYPE_3": "Khum", "ENGTYPE_3": "Commune", "CC_3": "NA", "HASC_3": "NA"}, "geometry": {"type": "MultiPolygon", "coordinates": [[[[104.9226, 11.4288], [104.9135, 11.4303], [104.9121, 11.4331], [104.9057, 11.4357], [104.8966, 11.4355], [104.8886, 11.4302], [104.8852, 11.4343], [104.8807, 11.4362], [104.8843, 11.4443], [104.8843, 11.4511], [104.8881, 11.4645], [104.8945, 11.4671], [104.8964, 11.4648], [104.8963, 11.4609], [104.9008, 11.4605], [104.9006, 11.4569], [104.9023, 11.4571], [104.903, 11.461], [104.9056, 11.4607], [104.9049, 11.4553], [104.907, 11.4544], [104.9086, 11.45], [104.9134, 11.4478], [104.9166, 11.4474], [104.915, 11.4494], [104.9161, 11.4516], [104.9216, 11.4488], [104.9226, 11.4523], [104.9226, 11.4288]]]]}}, {"type": "Feature", "properties": {"GID_3": "KHM.16.4.8_2", "GID_0": "KHM", "COUNTRY": "Cambodia", "GID_1": "KHM.16_1", "NAME_1": "PhnomPenh", "NL_NAME_1": "NA", "GID_2": "KHM.16.4_2", "NAME_2": "Dangkao", "NL_NAME_2": "NA", "NAME_3": "PreySa", "VARNAME_3": "NA", "NL_NAME_3": "NA", "TYPE_3": "Khum", "ENGTYPE_3": "Commune", "CC_3": "NA", "HASC_3": "NA"}, "geometry": {"type": "MultiPolygon", "coordinates": [[[[104.8782, 11.5164], [104.8808, 11.5108], [104.8809, 11.5059], [104.8786, 11.5042], [104.8774, 11.4903], [104.8734, 11.4838], [104.8757, 11.4773], [104.8683, 11.4746], [104.8642, 11.4779], [104.858, 11.477], [104.8463, 11.4798], [104.85, 11.4867], [104.8448, 11.4871], [104.8412, 11.4903], [104.8379, 11.5027], [104.8387, 11.505], [104.8448, 11.5064], [104.8572, 11.5056], [104.8656, 11.5101], [104.8726, 11.5114], [104.8782, 11.5164]]]]}}, {"type": "Feature", "properties": {"GID_3": "KHM.16.4.9_2", "GID_0": "KHM", "COUNTRY": "Cambodia", "GID_1": "KHM.16_1", "NAME_1": "PhnomPenh", "NL_NAME_1": "NA", "GID_2": "KHM.16.4_2", "NAME_2": "Dangkao", "NL_NAME_2": "NA", "NAME_3": "PreyVeaeng", "VARNAME_3": "NA", "NL_NAME_3": "NA", "TYPE_3": "Khum", "ENGTYPE_3": "Commune", "CC_3": "NA", "HASC_3": "NA"}, "geometry": {"type": "MultiPolygon", "coordinates": [[[[104.8327, 11.453], [104.8335, 11.4685], [104.8323, 11.481], [104.8331, 11.4876], [104.8364, 11.4929], [104.8359, 11.5003], [104.8388, 11.4992], [104.8424, 11.4885], [104.85, 11.4867], [104.8463, 11.4798], [104.858, 11.477], [104.8642, 11.4779], [104.8676, 11.4747], [104.8649, 11.4722], [104.8664, 11.4676], [104.8611, 11.4664], [104.8607, 11.465], [104.8527, 11.47], [104.8518, 11.4627], [104.8434, 11.4591], [104.8426, 11.451], [104.8404, 11.453], [104.8327, 11.453]]]]}}, {"type": "Feature", "properties": {"GID_3": "KHM.16.4.10_2", "GID_0": "KHM", "COUNTRY": "Cambodia", "GID_1": "KHM.16_1", "NAME_1": "PhnomPenh", "NL_NAME_1": "NA", "GID_2": "KHM.16.4_2", "NAME_2": "Dangkao", "NL_NAME_2": "NA", "NAME_3": "Roluos", "VARNAME_3": "NA", "NL_NAME_3": "NA", "TYPE_3": "Khum", "ENGTYPE_3": "Commune", "CC_3": "NA", "HASC_3": "NA"}, "geometry": {"type": "MultiPolygon", "coordinates": [[[[104.8807, 11.4362], [104.8734, 11.4225], [104.8676, 11.4249], [104.8677, 11.4322], [104.8613, 11.4396], [104.8606, 11.4438], [104.8646, 11.4444], [104.8661, 11.4493], [104.8768, 11.4494], [104.8808, 11.4459], [104.8843, 11.4511], [104.8843, 11.4443], [104.8807, 11.4362]]]]}}, {"type": "Feature", "properties": {"GID_3": "KHM.16.4.11_2", "GID_0": "KHM", "COUNTRY": "Cambodia", "GID_1": "KHM.16_1", "NAME_1": "PhnomPenh", "NL_NAME_1": "NA", "GID_2": "KHM.16.4_2", "NAME_2": "Dangkao", "NL_NAME_2": "NA", "NAME_3": "SakSampov", "VARNAME_3": "NA", "NL_NAME_3": "NA", "TYPE_3": "Khum", "ENGTYPE_3": "Commune", "CC_3": "NA", "HASC_3": "NA"}, "geometry": {"type": "MultiPolygon", "coordinates": [[[[104.8268, 11.4391], [104.8221, 11.4441], [104.8227, 11.4468], [104.8203, 11.4522], [104.8393, 11.4531], [104.8426, 11.451], [104.8434, 11.4591], [104.8518, 11.4627], [104.8527, 11.47], [104.8659, 11.461], [104.865, 11.459], [104.8613, 11.4576], [104.8601, 11.4536], [104.8544, 11.4541], [104.8524, 11.452], [104.8498, 11.4526], [104.8458, 11.4464], [104.8391, 11.4464], [104.8382, 11.441], [104.8322, 11.4427], [104.8268, 11.4391]]]]}}, {"type": "Feature", "properties": {"GID_3": "KHM.16.4.12_2", "GID_0": "KHM", "COUNTRY": "Cambodia", "GID_1": "KHM.16_1", "NAME_1": "PhnomPenh", "NL_NAME_1": "NA", "GID_2": "KHM.16.4_2", "NAME_2": "Dangkao", "NL_NAME_2": "NA", "NAME_3": "SpeanThma", "VARNAME_3": "NA", "NL_NAME_3": "NA", "TYPE_3": "Khum", "ENGTYPE_3": "Commune", "CC_3": "NA", "HASC_3": "NA"}, "geometry": {"type": "MultiPolygon", "coordinates": [[[[104.8757, 11.4773], [104.8827, 11.4773], [104.8884, 11.4714], [104.8923, 11.4719], [104.8909, 11.4685], [104.8891, 11.4679], [104.8906, 11.4658], [104.8881, 11.4645], [104.8852, 11.4527], [104.8808, 11.4459], [104.8768, 11.4494], [104.8661, 11.4493], [104.8587, 11.4525], [104.8613, 11.4576], [104.8659, 11.4602], [104.8607, 11.465], [104.8611, 11.4664], [104.8664, 11.4676], [104.8649, 11.4722], [104.8676, 11.4747], [104.8757, 11.4773]]]]}}, {"type": "Feature", "properties": {"GID_3": "KHM.16.4.13_2", "GID_0": "KHM", "COUNTRY": "Cambodia", "GID_1": "KHM.16_1", "NAME_1": "PhnomPenh", "NL_NAME_1": "NA", "GID_2": "KHM.16.4_2", "NAME_2": "Dangkao", "NL_NAME_2": "NA", "NAME_3": "Tien", "VARNAME_3": "NA", "NL_NAME_3": "NA", "TYPE_3": "Khum", "ENGTYPE_3": "Commune", "CC_3": "NA", "HASC_3": "NA"}, "geometry": {"type": "MultiPolygon", "coordinates": [[[[104.8676, 11.4249], [104.8644, 11.4263], [104.8576, 11.4238], [104.853, 11.4287], [104.8501, 11.4381], [104.8435, 11.4453], [104.8477, 11.4484], [104.8487, 11.4522], [104.8524, 11.452], [104.8553, 11.4542], [104.8588, 11.4531], [104.8596, 11.4511], [104.8645, 11.4508], [104.8661, 11.4493], [104.8656, 11.4455], [104.8606, 11.4438], [104.8605, 11.4422], [104.8677, 11.4322], [104.8676, 11.4249]]]]}}]}